{
  "type": "FeatureCollection",
  "features": [
    {
      "type": "Feature",
      "properties": {
        "norad_id": 66645,
        "name": "SHENZHOU-22",
        "group": "last-30-days",
        "lat": -3.1486770331216167,
        "lon": 169.897751499132,
        "alt_km": 391.31245873025273,
        "timestamp": "2025-12-17T17:50:17.973310+00:00",
        "meta_object_name": "SHENZHOU-22",
        "meta_object_id": "2025-272A",
        "meta_epoch": "2025-12-17T07:49:42.593088",
        "meta_mean_motion": 15.59373916,
        "meta_eccentricity": 0.0007759,
        "meta_inclination": 41.4681,
        "meta_ra_of_asc_node": 348.8601,
        "meta_arg_of_pericenter": 70.4303,
        "meta_mean_anomaly": 289.7373,
        "meta_ephemeris_type": 0,
        "meta_classification_type": "U",
        "meta_norad_cat_id": 66645,
        "meta_element_set_no": 999,
        "meta_rev_at_epoch": 26357,
        "meta_bstar": 0.00025118398,
        "meta_mean_motion_dot": 0.00020139,
        "meta_mean_motion_ddot": 0,
        "tle_line1": "1 66645U 25272A   25351.32618742  .00020139  00000+0  25118-3 0  9998",
        "tle_line2": "2 66645  41.4681 348.8601 0007759  70.4303 289.7373 15.59373916263579"
      },
      "geometry": {
        "type": "Point",
        "coordinates": [
          169.897751499132,
          -3.1486770331216167
        ]
      }
    },
    {
      "type": "Feature",
      "properties": {
        "norad_id": 66647,
        "name": "COSMOS 2597 (RODNIK-S 22)",
        "group": "last-30-days",
        "lat": 30.75448479249205,
        "lon": 98.84599720628678,
        "alt_km": 1500.0457241039003,
        "timestamp": "2025-12-17T17:50:17.973320+00:00",
        "meta_object_name": "COSMOS 2597 (RODNIK-S 22)",
        "meta_object_id": "2025-273A",
        "meta_epoch": "2025-12-17T07:22:18.016608",
        "meta_mean_motion": 12.41952017,
        "meta_eccentricity": 0.00076684,
        "meta_inclination": 82.499,
        "meta_ra_of_asc_node": 283.6128,
        "meta_arg_of_pericenter": 275.9944,
        "meta_mean_anomaly": 84.0261,
        "meta_ephemeris_type": 0,
        "meta_classification_type": "U",
        "meta_norad_cat_id": 66647,
        "meta_element_set_no": 999,
        "meta_rev_at_epoch": 270,
        "meta_bstar": -0.0001004671,
        "meta_mean_motion_dot": -4e-08,
        "meta_mean_motion_ddot": 0,
        "tle_line1": "1 66647U 25273A   25351.30715297 -.00000004  00000+0 -10047-3 0  9998",
        "tle_line2": "2 66647  82.4990 283.6128 0007668 275.9944  84.0261 12.41952017  2702"
      },
      "geometry": {
        "type": "Point",
        "coordinates": [
          98.84599720628678,
          30.75448479249205
        ]
      }
    },
    {
      "type": "Feature",
      "properties": {
        "norad_id": 66648,
        "name": "COSMOS 2598 (RODNIK-S 23)",
        "group": "last-30-days",
        "lat": -27.514353685886388,
        "lon": 107.26945355946712,
        "alt_km": 1492.4560267516854,
        "timestamp": "2025-12-17T17:50:17.973333+00:00",
        "meta_object_name": "COSMOS 2598 (RODNIK-S 23)",
        "meta_object_id": "2025-273B",
        "meta_epoch": "2025-12-17T07:04:02.230464",
        "meta_mean_motion": 12.43233444,
        "meta_eccentricity": 0.00080247,
        "meta_inclination": 82.5029,
        "meta_ra_of_asc_node": 283.6158,
        "meta_arg_of_pericenter": 225.9717,
        "meta_mean_anomaly": 134.0702,
        "meta_ephemeris_type": 0,
        "meta_classification_type": "U",
        "meta_norad_cat_id": 66648,
        "meta_element_set_no": 999,
        "meta_rev_at_epoch": 270,
        "meta_bstar": -0.00011464567,
        "meta_mean_motion_dot": -6e-08,
        "meta_mean_motion_ddot": 0,
        "tle_line1": "1 66648U 25273B   25351.29447026 -.00000006  00000+0 -11465-3 0  9996",
        "tle_line2": "2 66648  82.5029 283.6158 0008024 225.9717 134.0702 12.43233444  2704"
      },
      "geometry": {
        "type": "Point",
        "coordinates": [
          107.26945355946712,
          -27.514353685886388
        ]
      }
    },
    {
      "type": "Feature",
      "properties": {
        "norad_id": 66649,
        "name": "COSMOS 2599 (RODNIK-S 24)",
        "group": "last-30-days",
        "lat": 63.122367139723636,
        "lon": 88.31301432966373,
        "alt_km": 1499.8493234766438,
        "timestamp": "2025-12-17T17:50:17.973347+00:00",
        "meta_object_name": "COSMOS 2599 (RODNIK-S 24)",
        "meta_object_id": "2025-273C",
        "meta_epoch": "2025-12-17T07:32:33.519840",
        "meta_mean_motion": 12.41150963,
        "meta_eccentricity": 0.00062855,
        "meta_inclination": 82.5047,
        "meta_ra_of_asc_node": 283.6325,
        "meta_arg_of_pericenter": 267.4159,
        "meta_mean_anomaly": 92.6201,
        "meta_ephemeris_type": 0,
        "meta_classification_type": "U",
        "meta_norad_cat_id": 66649,
        "meta_element_set_no": 999,
        "meta_rev_at_epoch": 270,
        "meta_bstar": -0.00011850796,
        "meta_mean_motion_dot": -6e-08,
        "meta_mean_motion_ddot": 0,
        "tle_line1": "1 66649U 25273C   25351.31427685 -.00000006  00000+0 -11851-3 0  9998",
        "tle_line2": "2 66649  82.5047 283.6325 0006285 267.4159  92.6201 12.41150963  2704"
      },
      "geometry": {
        "type": "Point",
        "coordinates": [
          88.31301432966373,
          63.122367139723636
        ]
      }
    },
    {
      "type": "Feature",
      "properties": {
        "norad_id": 66650,
        "name": "BEE-1000",
        "group": "last-30-days",
        "lat": 35.35671327910215,
        "lon": 104.37650468979311,
        "alt_km": 590.2071051378489,
        "timestamp": "2025-12-17T17:50:17.973358+00:00",
        "meta_object_name": "BEE-1000",
        "meta_object_id": "2025-274A",
        "meta_epoch": "2025-12-17T07:32:00.988512",
        "meta_mean_motion": 14.91677428,
        "meta_eccentricity": 0.00105858,
        "meta_inclination": 97.7397,
        "meta_ra_of_asc_node": 278.4175,
        "meta_arg_of_pericenter": 234.4842,
        "meta_mean_anomaly": 125.539,
        "meta_ephemeris_type": 0,
        "meta_classification_type": "U",
        "meta_norad_cat_id": 66650,
        "meta_element_set_no": 999,
        "meta_rev_at_epoch": 308,
        "meta_bstar": 0.00012929605,
        "meta_mean_motion_dot": 1.245e-05,
        "meta_mean_motion_ddot": 0,
        "tle_line1": "1 66650U 25274A   25351.31390033  .00001245  00000+0  12930-3 0  9990",
        "tle_line2": "2 66650  97.7397 278.4175 0010585 234.4842 125.5390 14.91677428  3082"
      },
      "geometry": {
        "type": "Point",
        "coordinates": [
          104.37650468979311,
          35.35671327910215
        ]
      }
    },
    {
      "type": "Feature",
      "properties": {
        "norad_id": 66651,
        "name": "2025-274B",
        "group": "last-30-days",
        "lat": 27.809849853499156,
        "lon": 102.95424053755488,
        "alt_km": 589.782124411854,
        "timestamp": "2025-12-17T17:50:17.973368+00:00",
        "meta_object_name": "2025-274B",
        "meta_object_id": "2025-274B",
        "meta_epoch": "2025-12-17T07:30:01.927584",
        "meta_mean_motion": 14.91832453,
        "meta_eccentricity": 0.00108432,
        "meta_inclination": 97.7392,
        "meta_ra_of_asc_node": 278.4179,
        "meta_arg_of_pericenter": 233.404,
        "meta_mean_anomaly": 126.6182,
        "meta_ephemeris_type": 0,
        "meta_classification_type": "U",
        "meta_norad_cat_id": 66651,
        "meta_element_set_no": 999,
        "meta_rev_at_epoch": 308,
        "meta_bstar": 0.00024060193,
        "meta_mean_motion_dot": 2.375e-05,
        "meta_mean_motion_ddot": 0,
        "tle_line1": "1 66651U 25274B   25351.31252231  .00002375  00000+0  24060-3 0  9990",
        "tle_line2": "2 66651  97.7392 278.4179 0010843 233.4040 126.6182 14.91832453  3080"
      },
      "geometry": {
        "type": "Point",
        "coordinates": [
          102.95424053755488,
          27.809849853499156
        ]
      }
    },
    {
      "type": "Feature",
      "properties": {
        "norad_id": 66652,
        "name": "2025-274C",
        "group": "last-30-days",
        "lat": 18.432181069454156,
        "lon": 101.44406785444345,
        "alt_km": 590.7259517738739,
        "timestamp": "2025-12-17T17:50:17.973378+00:00",
        "meta_object_name": "2025-274C",
        "meta_object_id": "2025-274C",
        "meta_epoch": "2025-12-17T07:27:31.886208",
        "meta_mean_motion": 14.91928378,
        "meta_eccentricity": 0.00104375,
        "meta_inclination": 97.7398,
        "meta_ra_of_asc_node": 278.4214,
        "meta_arg_of_pericenter": 240.4439,
        "meta_mean_anomaly": 119.574,
        "meta_ephemeris_type": 0,
        "meta_classification_type": "U",
        "meta_norad_cat_id": 66652,
        "meta_element_set_no": 999,
        "meta_rev_at_epoch": 308,
        "meta_bstar": 0.00019448666,
        "meta_mean_motion_dot": 1.913e-05,
        "meta_mean_motion_ddot": 0,
        "tle_line1": "1 66652U 25274C   25351.31078572  .00001913  00000+0  19449-3 0  9997",
        "tle_line2": "2 66652  97.7398 278.4214 0010437 240.4439 119.5740 14.91928378  3089"
      },
      "geometry": {
        "type": "Point",
        "coordinates": [
          101.44406785444345,
          18.432181069454156
        ]
      }
    }
  ]
}